{
  "status": "PROCESSED",
  "rsoStates": [
    {
      "rsoId": "41868",
      "uct": false,
      "scoreProvider": "Lynx",
      "scoredStates": [
        {
          "stateRanking": 1,
          "source": "18th SPCS",
          "score": 0.81816472067455559,
          "type": "ELSET",
          "state": {
            "line1": "1 41868U 16065A   25017.95089072 +.00000068 +00000+0 +00000+0 0 99998",
            "line2": "2 41868   4.4377  78.8617 0005192 227.8326 335.1802 01.00273456030042"
          },
          "stateId": "81ec3001-e5b2-4165-84e3-07a2dd9871e3"
        },
        {
          "stateRanking": 2,
          "source": "EXO",
          "score": 0.53974241933031264,
          "type": "ELSET",
          "state": {
            "line1": "1 41868U 16065A   25018.55732630 +.00000000 +00000+0 +00000+0 0 99996",
            "line2": "2 41868   4.4392  78.8562 0005165 229.4159 192.5202 01.00269854000009"
          },
          "stateId": "338f6284-d25e-4b33-98de-9fe5b7d6876f"
        },
        {
          "stateRanking": 3,
          "source": "SSDP",
          "score": 0.38168011682046887,
          "type": "ELSET",
          "state": {
            "line1": "1 41868U 16065A   25018.55732630 +.00000000 +19700-1 +10000-1 4 99992",
            "line2": "2 41868   4.4592  78.8441 0004980 224.8413 197.1313 01.00266911000008"
          },
          "stateId": "eafb0521-dd2c-4b9a-bf2d-502ce867bfa4"
        }
      ]
    },
    {
      "rsoId": "2e06d8c1-d1b8-4f26-996f-1cddee2bf47b",
      "uct": true,
      "scoreProvider": "OBE",
      "scoredStates": [
        {
          "stateRanking": 1,
          "source": "18th SPCS",
          "score": 0.81816472067455559,
          "type": "ELSET",
          "state": {
            "line1": "1 98765U 16065A   25017.95089072 +.00000068 +00000+0 +00000+0 0 99998",
            "line2": "2 98765   4.4377  78.8617 0005192 227.8326 335.1802 01.00273456030042"
          },
          "stateId": "b0d0e70a-ab8a-4fc5-8d1c-b0a569a4b9e1"
        },
        {
          "stateRanking": 2,
          "source": "EXO",
          "score": 0.53974241933031264,
          "type": "ELSET",
          "state": {
            "line1": "1 41838U 16065A   25018.55732630 +.00000000 +00000+0 +00000+0 0 99996",
            "line2": "2 41838   4.4392  78.8562 0005165 229.4159 192.5202 01.00269854000009"
          },
          "stateId": "338f6284-d25e-4b33-98de-9fe5b7d6876f"
        },
        {
          "stateRanking": 3,
          "source": "SSDP",
          "score": 0.38168011682046887,
          "type": "ELSET",
          "state": {
            "line1": "1 41838U 16065A   25018.55732630 +.00000000 +19700-1 +10000-1 4 99992",
            "line2": "2 41838   4.4592  78.8441 0004980 224.8413 197.1313 01.00266911000008"
          },
          "stateId": "eafb0521-dd2c-4b9a-bf2d-502ce867bfa4"
        }
      ]
    }
  ]
}